{
  "type": "FeatureCollection",
  "features": [
    {
      "type": "Feature",
      "properties": {
        "norad_id": 66990,
        "name": "TJS-22",
        "group": "last-30-days",
        "lat": 7.875118102656907,
        "lon": -38.744907381338656,
        "alt_km": 31618.272075472898,
        "timestamp": "2025-12-18T17:50:13.702543+00:00",
        "meta_object_name": "TJS-22",
        "meta_object_id": "2025-290A",
        "meta_epoch": "2025-12-10T07:11:32.845344",
        "meta_mean_motion": 2.15443148,
        "meta_eccentricity": 0.6664534,
        "meta_inclination": 20.1261,
        "meta_ra_of_asc_node": 301.1464,
        "meta_arg_of_pericenter": 180.6877,
        "meta_mean_anomaly": 177.6237,
        "meta_ephemeris_type": 0,
        "meta_classification_type": "U",
        "meta_norad_cat_id": 66990,
        "meta_element_set_no": 999,
        "meta_rev_at_epoch": 3,
        "meta_bstar": 0.079788243,
        "meta_mean_motion_dot": -3.8e-07,
        "meta_mean_motion_ddot": 0,
        "tle_line1": "1 66990U 25290A   25344.29968571 -.00000038  00000+0  79788-1 0  9994",
        "tle_line2": "2 66990  20.1261 301.1464 6664534 180.6877 177.6237  2.15443148    32"
      },
      "geometry": {
        "type": "Point",
        "coordinates": [
          -38.744907381338656,
          7.875118102656907
        ]
      }
    },
    {
      "type": "Feature",
      "properties": {
        "norad_id": 66991,
        "name": "CZ-3B R/B",
        "group": "last-30-days",
        "lat": 9.199366835058495,
        "lon": -43.36890642118461,
        "alt_km": 31022.374712360597,
        "timestamp": "2025-12-18T17:50:13.702556+00:00",
        "meta_object_name": "CZ-3B R/B",
        "meta_object_id": "2025-290B",
        "meta_epoch": "2025-12-15T17:23:33.043200",
        "meta_mean_motion": 2.38388611,
        "meta_eccentricity": 0.7240884,
        "meta_inclination": 28.4636,
        "meta_ra_of_asc_node": 300.4666,
        "meta_arg_of_pericenter": 182.7002,
        "meta_mean_anomaly": 168.625,
        "meta_ephemeris_type": 0,
        "meta_classification_type": "U",
        "meta_norad_cat_id": 66991,
        "meta_element_set_no": 999,
        "meta_rev_at_epoch": 16,
        "meta_bstar": 0.00075879,
        "meta_mean_motion_dot": 0.00057911,
        "meta_mean_motion_ddot": -2.0514e-07,
        "tle_line1": "1 66991U 25290B   25349.72468800  .00057911 -20514-6  75879-3 0  9998",
        "tle_line2": "2 66991  28.4636 300.4666 7240884 182.7002 168.6250  2.38388611   165"
      },
      "geometry": {
        "type": "Point",
        "coordinates": [
          -43.36890642118461,
          9.199366835058495
        ]
      }
    },
    {
      "type": "Feature",
      "properties": {
        "norad_id": 66993,
        "name": "2025-292A",
        "group": "last-30-days",
        "lat": 82.00760688415112,
        "lon": -41.48811668287776,
        "alt_km": 554.3531245851254,
        "timestamp": "2025-12-18T17:50:13.702567+00:00",
        "meta_object_name": "2025-292A",
        "meta_object_id": "2025-292A",
        "meta_epoch": "2025-12-18T06:15:15.600672",
        "meta_mean_motion": 15.04534968,
        "meta_eccentricity": 0.00138255,
        "meta_inclination": 97.6532,
        "meta_ra_of_asc_node": 64.7586,
        "meta_arg_of_pericenter": 251.9773,
        "meta_mean_anomaly": 107.9947,
        "meta_ephemeris_type": 0,
        "meta_classification_type": "U",
        "meta_norad_cat_id": 66993,
        "meta_element_set_no": 999,
        "meta_rev_at_epoch": 122,
        "meta_bstar": 0.00025365056,
        "meta_mean_motion_dot": 3.5e-05,
        "meta_mean_motion_ddot": 0,
        "tle_line1": "1 66993U 25292A   25352.26059723  .00003500  00000+0  25365-3 0  9995",
        "tle_line2": "2 66993  97.6532  64.7586 0013825 251.9773 107.9947 15.04534968  1223"
      },
      "geometry": {
        "type": "Point",
        "coordinates": [
          -41.48811668287776,
          82.00760688415112
        ]
      }
    },
    {
      "type": "Feature",
      "properties": {
        "norad_id": 66994,
        "name": "2025-292B",
        "group": "last-30-days",
        "lat": 81.50896321546226,
        "lon": -50.49786694061091,
        "alt_km": 554.0326225964282,
        "timestamp": "2025-12-18T17:50:13.702579+00:00",
        "meta_object_name": "2025-292B",
        "meta_object_id": "2025-292B",
        "meta_epoch": "2025-12-18T06:14:54.694464",
        "meta_mean_motion": 15.04574928,
        "meta_eccentricity": 0.00135961,
        "meta_inclination": 97.6541,
        "meta_ra_of_asc_node": 64.7598,
        "meta_arg_of_pericenter": 252.3152,
        "meta_mean_anomaly": 107.659,
        "meta_ephemeris_type": 0,
        "meta_classification_type": "U",
        "meta_norad_cat_id": 66994,
        "meta_element_set_no": 999,
        "meta_rev_at_epoch": 122,
        "meta_bstar": 0.00029846685,
        "meta_mean_motion_dot": 4.133e-05,
        "meta_mean_motion_ddot": 0,
        "tle_line1": "1 66994U 25292B   25352.26035526  .00004133  00000+0  29847-3 0  9993",
        "tle_line2": "2 66994  97.6541  64.7598 0013596 252.3152 107.6590 15.04574928  1229"
      },
      "geometry": {
        "type": "Point",
        "coordinates": [
          -50.49786694061091,
          81.50896321546226
        ]
      }
    },
    {
      "type": "Feature",
      "properties": {
        "norad_id": 66995,
        "name": "2025-292C",
        "group": "last-30-days",
        "lat": 81.36575246043695,
        "lon": -52.44522328340209,
        "alt_km": 554.1469460182698,
        "timestamp": "2025-12-18T17:50:13.702589+00:00",
        "meta_object_name": "2025-292C",
        "meta_object_id": "2025-292C",
        "meta_epoch": "2025-12-18T06:14:50.183520",
        "meta_mean_motion": 15.04600455,
        "meta_eccentricity": 0.00138881,
        "meta_inclination": 97.6532,
        "meta_ra_of_asc_node": 64.759,
        "meta_arg_of_pericenter": 252.6828,
        "meta_mean_anomaly": 107.2879,
        "meta_ephemeris_type": 0,
        "meta_classification_type": "U",
        "meta_norad_cat_id": 66995,
        "meta_element_set_no": 999,
        "meta_rev_at_epoch": 122,
        "meta_bstar": 0.0003354972,
        "meta_mean_motion_dot": 4.658e-05,
        "meta_mean_motion_ddot": 0,
        "tle_line1": "1 66995U 25292C   25352.26030305  .00004658  00000+0  33550-3 0  9992",
        "tle_line2": "2 66995  97.6532  64.7590 0013888 252.6828 107.2879 15.04600455  1220"
      },
      "geometry": {
        "type": "Point",
        "coordinates": [
          -52.44522328340209,
          81.36575246043695
        ]
      }
    },
    {
      "type": "Feature",
      "properties": {
        "norad_id": 66996,
        "name": "2025-292D",
        "group": "last-30-days",
        "lat": 80.60988177515337,
        "lon": -60.36875904667266,
        "alt_km": 553.6231093862416,
        "timestamp": "2025-12-18T17:50:13.702599+00:00",
        "meta_object_name": "2025-292D",
        "meta_object_id": "2025-292D",
        "meta_epoch": "2025-12-18T06:14:28.167072",
        "meta_mean_motion": 15.04633342,
        "meta_eccentricity": 0.00130563,
        "meta_inclination": 97.6525,
        "meta_ra_of_asc_node": 64.7588,
        "meta_arg_of_pericenter": 255.3674,
        "meta_mean_anomaly": 104.6104,
        "meta_ephemeris_type": 0,
        "meta_classification_type": "U",
        "meta_norad_cat_id": 66996,
        "meta_element_set_no": 999,
        "meta_rev_at_epoch": 122,
        "meta_bstar": 0.00020187503,
        "meta_mean_motion_dot": 2.779e-05,
        "meta_mean_motion_ddot": 0,
        "tle_line1": "1 66996U 25292D   25352.26004823  .00002779  00000+0  20188-3 0  9994",
        "tle_line2": "2 66996  97.6525  64.7588 0013056 255.3674 104.6104 15.04633342  1229"
      },
      "geometry": {
        "type": "Point",
        "coordinates": [
          -60.36875904667266,
          80.60988177515337
        ]
      }
    },
    {
      "type": "Feature",
      "properties": {
        "norad_id": 66997,
        "name": "2025-292E",
        "group": "last-30-days",
        "lat": 78.99503234771863,
        "lon": -71.00382554846065,
        "alt_km": 553.5656323250005,
        "timestamp": "2025-12-18T17:50:13.702609+00:00",
        "meta_object_name": "2025-292E",
        "meta_object_id": "2025-292E",
        "meta_epoch": "2025-12-18T06:13:50.957184",
        "meta_mean_motion": 15.04718314,
        "meta_eccentricity": 0.00134207,
        "meta_inclination": 97.6547,
        "meta_ra_of_asc_node": 64.7613,
        "meta_arg_of_pericenter": 256.2844,
        "meta_mean_anomaly": 103.6888,
        "meta_ephemeris_type": 0,
        "meta_classification_type": "U",
        "meta_norad_cat_id": 66997,
        "meta_element_set_no": 999,
        "meta_rev_at_epoch": 121,
        "meta_bstar": 0.00025588693,
        "meta_mean_motion_dot": 3.548e-05,
        "meta_mean_motion_ddot": 0,
        "tle_line1": "1 66997U 25292E   25352.25961756  .00003548  00000+0  25589-3 0  9996",
        "tle_line2": "2 66997  97.6547  64.7613 0013420 256.2844 103.6888 15.04718314  1217"
      },
      "geometry": {
        "type": "Point",
        "coordinates": [
          -71.00382554846065,
          78.99503234771863
        ]
      }
    }
  ]
}